{"type": "FeatureCollection", "features": [ {"type": "Feature", "properties": {"norad_id": 43262, "name": "GAOFEN-1 04", "group": "resource", "lat": 80.553320198179, "lon": -17.5666800565052, "alt_km": 632.4263880464205, "timestamp": "2025-12-09T05:43:20.385431+00:00", "meta": {"OBJECT_NAME": "GAOFEN-1 04", "OBJECT_ID": "2018-031D", "EPOCH": "2025-12-08T21:12:21.056256", "MEAN_MOTION": 14.76437888, "ECCENTRICITY": 0.0001231, "INCLINATION": 98.081, "RA_OF_ASC_NODE": 40.7174, "ARG_OF_PERICENTER": 55.6009, "MEAN_ANOMALY": 304.5317, "EPHEMERIS_TYPE": 0, "CLASSIFICATION_TYPE": "U", "NORAD_CAT_ID": 43262, "ELEMENT_SET_NO": 999, "REV_AT_EPOCH": 41460, "BSTAR": 0.00022342, "MEAN_MOTION_DOT": 1.502e-05, "MEAN_MOTION_DDOT": 0}, "tle": {"line1": "1 43262U 18031D   25342.88357704  .00001502  00000+0  22342-3 0  9991", "line2": "2 43262  98.0810  40.7174 0001231  55.6009 304.5317 14.76437888414604"}}, "geometry": {"type": "Point", "coordinates": [-17.5666800565052, 80.553320198179]}}, {"type": "Feature", "properties": {"norad_id": 43437, "name": "SENTINEL-3B", "group": "resource", "lat": 22.370104248474917, "lon": -127.94419459148183, "alt_km": 801.6008251651165, "timestamp": "2025-12-09T05:43:20.385442+00:00", "meta": {"OBJECT_NAME": "SENTINEL-3B", "OBJECT_ID": "2018-039A", "EPOCH": "2025-12-08T18:53:20.893632", "MEAN_MOTION": 14.26740881, "ECCENTRICITY": 0.0001531, "INCLINATION": 98.627, "RA_OF_ASC_NODE": 48.0287, "ARG_OF_PERICENTER": 106.7171, "MEAN_ANOMALY": 253.4177, "EPHEMERIS_TYPE": 0, "CLASSIFICATION_TYPE": "U", "NORAD_CAT_ID": 43437, "ELEMENT_SET_NO": 999, "REV_AT_EPOCH": 39697, "BSTAR": 0.00014972, "MEAN_MOTION_DOT": 3.19e-06, "MEAN_MOTION_DDOT": 0}, "tle": {"line1": "1 43437U 18039A   25342.78704738  .00000319  00000+0  14972-3 0  9990", "line2": "2 43437  98.6270  48.0287 0001531 106.7171 253.4177 14.26740881396971"}}, "geometry": {"type": "Point", "coordinates": [-127.94419459148183, 22.370104248474917]}}, {"type": "Feature", "properties": {"norad_id": 43461, "name": "GAOFEN-5 01", "group": "resource", "lat": 78.78482290034336, "lon": -102.28168100225137, "alt_km": 684.4959332150102, "timestamp": "2025-12-09T05:43:20.385452+00:00", "meta": {"OBJECT_NAME": "GAOFEN-5 01", "OBJECT_ID": "2018-043A", "EPOCH": "2025-12-08T19:28:46.412256", "MEAN_MOTION": 14.60404335, "ECCENTRICITY": 0.0001232, "INCLINATION": 98.4319, "RA_OF_ASC_NODE": 305.7104, "ARG_OF_PERICENTER": 355.0577, "MEAN_ANOMALY": 5.061, "EPHEMERIS_TYPE": 0, "CLASSIFICATION_TYPE": "U", "NORAD_CAT_ID": 43461, "ELEMENT_SET_NO": 999, "REV_AT_EPOCH": 40390, "BSTAR": 0.00022964, "MEAN_MOTION_DOT": 1.063e-05, "MEAN_MOTION_DDOT": 0}, "tle": {"line1": "1 43461U 18043A   25342.81164829  .00001063  00000+0  22964-3 0  9994", "line2": "2 43461  98.4319 305.7104 0001232 355.0577   5.0610 14.60404335403902"}}, "geometry": {"type": "Point", "coordinates": [-102.28168100225137, 78.78482290034336]}}, {"type": "Feature", "properties": {"norad_id": 43484, "name": "GAOFEN-6", "group": "resource", "lat": -54.257368416037906, "lon": -143.3617513731894, "alt_km": 656.108207266685, "timestamp": "2025-12-09T05:43:20.385462+00:00", "meta": {"OBJECT_NAME": "GAOFEN-6", "OBJECT_ID": "2018-048A", "EPOCH": "2025-12-08T20:31:49.450080", "MEAN_MOTION": 14.76553809, "ECCENTRICITY": 0.0013307, "INCLINATION": 97.8034, "RA_OF_ASC_NODE": 47.2527, "ARG_OF_PERICENTER": 74.6921, "MEAN_ANOMALY": 285.5759, "EPHEMERIS_TYPE": 0, "CLASSIFICATION_TYPE": "U", "NORAD_CAT_ID": 43484, "ELEMENT_SET_NO": 999, "REV_AT_EPOCH": 40530, "BSTAR": 0.00012421, "MEAN_MOTION_DOT": 8.18e-06, "MEAN_MOTION_DDOT": 0}, "tle": {"line1": "1 43484U 18048A   25342.85543345  .00000818  00000+0  12421-3 0  9996", "line2": "2 43484  97.8034  47.2527 0013307  74.6921 285.5759 14.76553809405307"}}, "geometry": {"type": "Point", "coordinates": [-143.3617513731894, -54.257368416037906]}}, {"type": "Feature", "properties": {"norad_id": 43585, "name": "GAOFEN-11 01", "group": "resource", "lat": -27.96866292488591, "lon": -137.62351093629317, "alt_km": 427.1249745898649, "timestamp": "2025-12-09T05:43:20.385473+00:00", "meta": {"OBJECT_NAME": "GAOFEN-11 01", "OBJECT_ID": "2018-063A", "EPOCH": "2025-12-08T21:04:28.577856", "MEAN_MOTION": 15.49044154, "ECCENTRICITY": 0.0004592, "INCLINATION": 97.156, "RA_OF_ASC_NODE": 45.8446, "ARG_OF_PERICENTER": 332.1914, "MEAN_ANOMALY": 27.9091, "EPHEMERIS_TYPE": 0, "CLASSIFICATION_TYPE": "U", "NORAD_CAT_ID": 43585, "ELEMENT_SET_NO": 999, "REV_AT_EPOCH": 41082, "BSTAR": 0.00017402, "MEAN_MOTION_DOT": 9.343e-05, "MEAN_MOTION_DDOT": 0}, "tle": {"line1": "1 43585U 18063A   25342.87810854  .00009343  00000+0  17402-3 0  9995", "line2": "2 43585  97.1560  45.8446 0004592 332.1914  27.9091 15.49044154410829"}}, "geometry": {"type": "Point", "coordinates": [-137.62351093629317, -27.96866292488591]}}, {"type": "Feature", "properties": {"norad_id": 43613, "name": "ICESAT-2", "group": "resource", "lat": -27.59317059880889, "lon": 58.743444802915995, "alt_km": 486.04909128741474, "timestamp": "2025-12-09T05:43:20.385483+00:00", "meta": {"OBJECT_NAME": "ICESAT-2", "OBJECT_ID": "2018-070A", "EPOCH": "2025-12-08T19:23:17.229984", "MEAN_MOTION": 15.28246408, "ECCENTRICITY": 0.0002129, "INCLINATION": 92.0044, "RA_OF_ASC_NODE": 239.6761, "ARG_OF_PERICENTER": 158.9511, "MEAN_ANOMALY": 201.1826, "EPHEMERIS_TYPE": 0, "CLASSIFICATION_TYPE": "U", "NORAD_CAT_ID": 43613, "ELEMENT_SET_NO": 999, "REV_AT_EPOCH": 40338, "BSTAR": 0.00065574, "MEAN_MOTION_DOT": 0.00018057, "MEAN_MOTION_DDOT": 0}, "tle": {"line1": "1 43613U 18070A   25342.80783831  .00018057  00000+0  65574-3 0  9997", "line2": "2 43613  92.0044 239.6761 0002129 158.9511 201.1826 15.28246408403384"}}, "geometry": {"type": "Point", "coordinates": [58.743444802915995, -27.59317059880889]}}, {"type": "Feature", "properties": {"norad_id": 43719, "name": "HYSIS", "group": "resource", "lat": -62.9279934133846, "lon": -149.75913834600667, "alt_km": 641.9244504293465, "timestamp": "2025-12-09T05:43:20.385493+00:00", "meta": {"OBJECT_NAME": "HYSIS", "OBJECT_ID": "2018-096A", "EPOCH": "2025-12-08T20:30:05.743296", "MEAN_MOTION": 14.7862697, "ECCENTRICITY": 0.0001545, "INCLINATION": 98.0101, "RA_OF_ASC_NODE": 45.8509, "ARG_OF_PERICENTER": 56.8271, "MEAN_ANOMALY": 303.3088, "EPHEMERIS_TYPE": 0, "CLASSIFICATION_TYPE": "U", "NORAD_CAT_ID": 43719, "ELEMENT_SET_NO": 999, "REV_AT_EPOCH": 37929, "BSTAR": 0.00021523, "MEAN_MOTION_DOT": 1.524e-05, "MEAN_MOTION_DDOT": 0}, "tle": {"line1": "1 43719U 18096A   25342.85423314  .00001524  00000+0  21523-3 0  9991", "line2": "2 43719  98.0101  45.8509 0001545  56.8271 303.3088 14.78626970379295"}}, "geometry": {"type": "Point", "coordinates": [-149.75913834600667, -62.9279934133846]}}, {"type": "Feature", "properties": {"norad_id": 43783, "name": "KAZSTSAT", "group": "resource", "lat": -39.36394111756961, "lon": -167.59333886095402, "alt_km": 577.9374764244903, "timestamp": "2025-12-09T05:43:20.385503+00:00", "meta": {"OBJECT_NAME": "KAZSTSAT", "OBJECT_ID": "2018-099AB", "EPOCH": "2025-12-08T15:55:53.452704", "MEAN_MOTION": 14.99334674, "ECCENTRICITY": 0.0006139, "INCLINATION": 97.4556, "RA_OF_ASC_NODE": 18.0238, "ARG_OF_PERICENTER": 346.9065, "MEAN_ANOMALY": 13.1998, "EPHEMERIS_TYPE": 0, "CLASSIFICATION_TYPE": "U", "NORAD_CAT_ID": 43783, "ELEMENT_SET_NO": 999, "REV_AT_EPOCH": 38275, "BSTAR": 0.00024608, "MEAN_MOTION_DOT": 2.952e-05, "MEAN_MOTION_DDOT": 0}, "tle": {"line1": "1 43783U 18099AB  25342.66381311  .00002952  00000+0  24608-3 0  9997", "line2": "2 43783  97.4556  18.0238 0006139 346.9065  13.1998 14.99334674382753"}}, "geometry": {"type": "Point", "coordinates": [-167.59333886095402, -39.36394111756961]}}, {"type": "Feature", "properties": {"norad_id": 43831, "name": "SAUDISAT 5A", "group": "resource", "lat": -57.648876243799236, "lon": 55.23108295886743, "alt_km": 502.80359715356735, "timestamp": "2025-12-09T05:43:20.385513+00:00", "meta": {"OBJECT_NAME": "SAUDISAT 5A", "OBJECT_ID": "2018-102A", "EPOCH": "2025-12-08T20:31:59.305728", "MEAN_MOTION": 15.25584098, "ECCENTRICITY": 0.0011825, "INCLINATION": 97.3353, "RA_OF_ASC_NODE": 43.1215, "ARG_OF_PERICENTER": 88.1035, "MEAN_ANOMALY": 272.1557, "EPHEMERIS_TYPE": 0, "CLASSIFICATION_TYPE": "U", "NORAD_CAT_ID": 43831, "ELEMENT_SET_NO": 999, "REV_AT_EPOCH": 38663, "BSTAR": 0.00039964, "MEAN_MOTION_DOT": 0.00010101, "MEAN_MOTION_DDOT": 0}, "tle": {"line1": "1 43831U 18102A   25342.85554752  .00010101  00000+0  39964-3 0  9994", "line2": "2 43831  97.3353  43.1215 0011825  88.1035 272.1557 15.25584098386631"}}, "geometry": {"type": "Point", "coordinates": [55.23108295886743, -57.648876243799236]}}, {"type": "Feature", "properties": {"norad_id": 43833, "name": "SAUDISAT 5B", "group": "resource", "lat": -10.637266627884614, "lon": 47.61750114299622, "alt_km": 493.76712809004766, "timestamp": "2025-12-09T05:43:20.385524+00:00", "meta": {"OBJECT_NAME": "SAUDISAT 5B", "OBJECT_ID": "2018-102C", "EPOCH": "2025-12-08T20:19:34.910976", "MEAN_MOTION": 15.25938522, "ECCENTRICITY": 0.0012537, "INCLINATION": 97.3447, "RA_OF_ASC_NODE": 45.8447, "ARG_OF_PERICENTER": 90.5372, "MEAN_ANOMALY": 269.7303, "EPHEMERIS_TYPE": 0, "CLASSIFICATION_TYPE": "U", "NORAD_CAT_ID": 43833, "ELEMENT_SET_NO": 999, "REV_AT_EPOCH": 38674, "BSTAR": 0.00037179, "MEAN_MOTION_DOT": 9.494e-05, "MEAN_MOTION_DDOT": 0}, "tle": {"line1": "1 43833U 18102C   25342.84693184  .00009494  00000+0  37179-3 0  9997", "line2": "2 43833  97.3447  45.8447 0012537  90.5372 269.7303 15.25938522386743"}}, "geometry": {"type": "Point", "coordinates": [47.61750114299622, -10.637266627884614]}}]}